{
  "type": "FeatureCollection",
  "features": [
    {
      "type": "Feature",
      "properties": {
        "norad_id": 41866,
        "name": "GOES 16",
        "group": "weather",
        "lat": -0.024788239161675236,
        "lon": 25.54750385232368,
        "alt_km": 35795.469780896594,
        "timestamp": "2025-12-04T03:47:54.197461+00:00",
        "meta_object_name": "GOES 16",
        "meta_object_id": "2016-071A",
        "meta_epoch": "2025-12-03T16:40:44.443776",
        "meta_mean_motion": 1.00270587,
        "meta_eccentricity": 0.0003425,
        "meta_inclination": 0.06,
        "meta_ra_of_asc_node": 106.1722,
        "meta_arg_of_pericenter": 150.8808,
        "meta_mean_anomaly": 321.241,
        "meta_ephemeris_type": 0,
        "meta_classification_type": "U",
        "meta_norad_cat_id": 41866,
        "meta_element_set_no": 999,
        "meta_rev_at_epoch": 3314,
        "meta_bstar": 0,
        "meta_mean_motion_dot": -7.3e-07,
        "meta_mean_motion_ddot": 0,
        "tle_line1": "1 41866U 16071A   25337.69495884 -.00000073  00000+0  00000+0 0  9992",
        "tle_line2": "2 41866   0.0600 106.1722 0003425 150.8808 321.2410  1.00270587 33140"
      },
      "geometry": {
        "type": "Point",
        "coordinates": [
          25.54750385232368,
          -0.024788239161675236
        ]
      }
    },
    {
      "type": "Feature",
      "properties": {
        "norad_id": 41882,
        "name": "FENGYUN 4A",
        "group": "weather",
        "lat": 0.24450487068202167,
        "lon": -106.03010239946568,
        "alt_km": 35765.73433594677,
        "timestamp": "2025-12-04T03:47:54.197475+00:00",
        "meta_object_name": "FENGYUN 4A",
        "meta_object_id": "2016-077A",
        "meta_epoch": "2025-12-03T17:33:02.668032",
        "meta_mean_motion": 1.00278005,
        "meta_eccentricity": 0.0005046,
        "meta_inclination": 1.8246,
        "meta_ra_of_asc_node": 82.4798,
        "meta_arg_of_pericenter": 142.0307,
        "meta_mean_anomaly": 235.3013,
        "meta_ephemeris_type": 0,
        "meta_classification_type": "U",
        "meta_norad_cat_id": 41882,
        "meta_element_set_no": 999,
        "meta_rev_at_epoch": 3297,
        "meta_bstar": 0,
        "meta_mean_motion_dot": -3.4e-06,
        "meta_mean_motion_ddot": 0,
        "tle_line1": "1 41882U 16077A   25337.73128088 -.00000340  00000+0  00000+0 0  9997",
        "tle_line2": "2 41882   1.8246  82.4798 0005046 142.0307 235.3013  1.00278005 32977"
      },
      "geometry": {
        "type": "Point",
        "coordinates": [
          -106.03010239946568,
          0.24450487068202167
        ]
      }
    },
    {
      "type": "Feature",
      "properties": {
        "norad_id": 41884,
        "name": "CYGFM05",
        "group": "weather",
        "lat": -1.561268121501754,
        "lon": 100.92981208540012,
        "alt_km": 425.6495960982875,
        "timestamp": "2025-12-04T03:47:54.197487+00:00",
        "meta_object_name": "CYGFM05",
        "meta_object_id": "2016-078A",
        "meta_epoch": "2025-12-03T18:31:05.693088",
        "meta_mean_motion": 15.47122129,
        "meta_eccentricity": 0.0009443,
        "meta_inclination": 34.9581,
        "meta_ra_of_asc_node": 105.6896,
        "meta_arg_of_pericenter": 97.015,
        "meta_mean_anomaly": 263.1646,
        "meta_ephemeris_type": 0,
        "meta_classification_type": "U",
        "meta_norad_cat_id": 41884,
        "meta_element_set_no": 999,
        "meta_rev_at_epoch": 49837,
        "meta_bstar": 0.0005289,
        "meta_mean_motion_dot": 0.00027731,
        "meta_mean_motion_ddot": 0,
        "tle_line1": "1 41884U 16078A   25337.77159367  .00027731  00000+0  52890-3 0  9998",
        "tle_line2": "2 41884  34.9581 105.6896 0009443  97.0150 263.1646 15.47122129498377"
      },
      "geometry": {
        "type": "Point",
        "coordinates": [
          100.92981208540012,
          -1.561268121501754
        ]
      }
    },
    {
      "type": "Feature",
      "properties": {
        "norad_id": 41885,
        "name": "CYGFM04",
        "group": "weather",
        "lat": 14.868709937300753,
        "lon": -124.1696800005056,
        "alt_km": 408.6177260028071,
        "timestamp": "2025-12-04T03:47:54.197497+00:00",
        "meta_object_name": "CYGFM04",
        "meta_object_id": "2016-078B",
        "meta_epoch": "2025-12-03T16:19:08.755680",
        "meta_mean_motion": 15.4978051,
        "meta_eccentricity": 0.0008498,
        "meta_inclination": 34.9344,
        "meta_ra_of_asc_node": 81.322,
        "meta_arg_of_pericenter": 126.9892,
        "meta_mean_anomaly": 233.1609,
        "meta_ephemeris_type": 0,
        "meta_classification_type": "U",
        "meta_norad_cat_id": 41885,
        "meta_element_set_no": 999,
        "meta_rev_at_epoch": 49853,
        "meta_bstar": 0.00098169,
        "meta_mean_motion_dot": 0.00056749,
        "meta_mean_motion_ddot": 0,
        "tle_line1": "1 41885U 16078B   25337.67996245  .00056749  00000+0  98169-3 0  9992",
        "tle_line2": "2 41885  34.9344  81.3220 0008498 126.9892 233.1609 15.49780510498530"
      },
      "geometry": {
        "type": "Point",
        "coordinates": [
          -124.1696800005056,
          14.868709937300753
        ]
      }
    },
    {
      "type": "Feature",
      "properties": {
        "norad_id": 41886,
        "name": "CYGFM02",
        "group": "weather",
        "lat": 28.29965365924921,
        "lon": -153.83322394490486,
        "alt_km": 401.099082947695,
        "timestamp": "2025-12-04T03:47:54.197509+00:00",
        "meta_object_name": "CYGFM02",
        "meta_object_id": "2016-078C",
        "meta_epoch": "2025-12-03T16:27:15.357024",
        "meta_mean_motion": 15.51117901,
        "meta_eccentricity": 0.0010221,
        "meta_inclination": 34.9434,
        "meta_ra_of_asc_node": 79.7274,
        "meta_arg_of_pericenter": 125.8816,
        "meta_mean_anomaly": 234.2856,
        "meta_ephemeris_type": 0,
        "meta_classification_type": "U",
        "meta_norad_cat_id": 41886,
        "meta_element_set_no": 999,
        "meta_rev_at_epoch": 49866,
        "meta_bstar": 0.00053655,
        "meta_mean_motion_dot": 0.0003243,
        "meta_mean_motion_ddot": 0,
        "tle_line1": "1 41886U 16078C   25337.68559441  .00032430  00000+0  53655-3 0  9999",
        "tle_line2": "2 41886  34.9434  79.7274 0010221 125.8816 234.2856 15.51117901498663"
      },
      "geometry": {
        "type": "Point",
        "coordinates": [
          -153.83322394490486,
          28.29965365924921
        ]
      }
    },
    {
      "type": "Feature",
      "properties": {
        "norad_id": 41887,
        "name": "CYGFM01",
        "group": "weather",
        "lat": 13.310057765912395,
        "lon": 125.38168024531264,
        "alt_km": 418.1498044903283,
        "timestamp": "2025-12-04T03:47:54.197537+00:00",
        "meta_object_name": "CYGFM01",
        "meta_object_id": "2016-078D",
        "meta_epoch": "2025-12-03T18:24:28.844064",
        "meta_mean_motion": 15.4768667,
        "meta_eccentricity": 0.0009033,
        "meta_inclination": 34.9412,
        "meta_ra_of_asc_node": 108.1317,
        "meta_arg_of_pericenter": 88.3823,
        "meta_mean_anomaly": 271.7933,
        "meta_ephemeris_type": 0,
        "meta_classification_type": "U",
        "meta_norad_cat_id": 41887,
        "meta_element_set_no": 999,
        "meta_rev_at_epoch": 49831,
        "meta_bstar": 0.00054644,
        "meta_mean_motion_dot": 0.00029225,
        "meta_mean_motion_ddot": 0,
        "tle_line1": "1 41887U 16078D   25337.76700051  .00029225  00000+0  54644-3 0  9991",
        "tle_line2": "2 41887  34.9412 108.1317 0009033  88.3823 271.7933 15.47686670498318"
      },
      "geometry": {
        "type": "Point",
        "coordinates": [
          125.38168024531264,
          13.310057765912395
        ]
      }
    },
    {
      "type": "Feature",
      "properties": {
        "norad_id": 41888,
        "name": "CYGFM08",
        "group": "weather",
        "lat": 19.228165077346148,
        "lon": 118.63230748294032,
        "alt_km": 415.20026380921354,
        "timestamp": "2025-12-04T03:47:54.197550+00:00",
        "meta_object_name": "CYGFM08",
        "meta_object_id": "2016-078E",
        "meta_epoch": "2025-12-03T16:49:09.162336",
        "meta_mean_motion": 15.48859683,
        "meta_eccentricity": 0.0010714,
        "meta_inclination": 34.9451,
        "meta_ra_of_asc_node": 91.66,
        "meta_arg_of_pericenter": 114.1528,
        "meta_mean_anomaly": 246.0315,
        "meta_ephemeris_type": 0,
        "meta_classification_type": "U",
        "meta_norad_cat_id": 41888,
        "meta_element_set_no": 999,
        "meta_rev_at_epoch": 49853,
        "meta_bstar": 0.00053575,
        "meta_mean_motion_dot": 0.00029879,
        "meta_mean_motion_ddot": 0,
        "tle_line1": "1 41888U 16078E   25337.70080049  .00029879  00000+0  53575-3 0  9991",
        "tle_line2": "2 41888  34.9451  91.6600 0010714 114.1528 246.0315 15.48859683498531"
      },
      "geometry": {
        "type": "Point",
        "coordinates": [
          118.63230748294032,
          19.228165077346148
        ]
      }
    }
  ]
}